{
    "links": {
        "self": "http://www.neowsapp.com/rest/v1/neo/3580325?api_key=iIulBulltgU6a56xZRHN4H3l9WmuAYTsLGpBGhQ2"
    },
    "id": "3580325",
    "neo_reference_id": "3580325",
    "name": "(2011 SN189)",
    "designation": "2011 SN189",
    "nasa_jpl_url": "http://ssd.jpl.nasa.gov/sbdb.cgi?sstr=3580325",
    "absolute_magnitude_h": 25.6,
    "estimated_diameter": {
        "kilometers": {
            "estimated_diameter_min": 0.0201629919,
            "estimated_diameter_max": 0.0450858206
        },
        "meters": {
            "estimated_diameter_min": 20.1629919443,
            "estimated_diameter_max": 45.0858206172
        },
        "miles": {
            "estimated_diameter_min": 0.0125286985,
            "estimated_diameter_max": 0.0280150214
        },
        "feet": {
            "estimated_diameter_min": 66.1515504905,
            "estimated_diameter_max": 147.9193637137
        }
    },
    "is_potentially_hazardous_asteroid": false,
    "close_approach_data": [
        {
            "close_approach_date": "2011-09-25",
            "close_approach_date_full": "2011-Sep-25 21:31",
            "epoch_date_close_approach": 1316986260000,
            "relative_velocity": {
                "kilometers_per_second": "9.1412236589",
                "kilometers_per_hour": "32908.4051719622",
                "miles_per_hour": "20448.0032025451"
            },
            "miss_distance": {
                "astronomical": "0.079344028",
                "lunar": "30.864826892",
                "kilometers": "11869697.58602036",
                "miles": "7375488.074026568"
            },
            "orbiting_body": "Earth"
        }
    ],
    "orbital_data": {
        "orbit_id": "6",
        "orbit_determination_date": "2019-07-16 06:14:42",
        "first_observation_date": "2011-09-26",
        "last_observation_date": "2011-09-30",
        "data_arc_in_days": 4,
        "observations_used": 20,
        "orbit_uncertainty": "8",
        "minimum_orbit_intersection": ".0778482",
        "jupiter_tisserand_invariant": "4.403",
        "epoch_osculation": "2455832.5",
        "eccentricity": ".2927788488437431",
        "semi_major_axis": "1.527191842433728",
        "inclination": "16.02745280179811",
        "ascending_node_longitude": "4.311368994540232",
        "orbital_period": "689.348476723417",
        "perihelion_distance": "1.080062372842426",
        "perihelion_argument": "356.545274803859",
        "aphelion_distance": "1.974321312025029",
        "perihelion_time": "2455828.081490830146",
        "mean_anomaly": "2.307487946746638",
        "mean_motion": ".5222322412477609",
        "equinox": "J2000",
        "orbit_class": {
            "orbit_class_type": "AMO",
            "orbit_class_description": "Near-Earth asteroid orbits similar to that of 1221 Amor",
            "orbit_class_range": "1.017 AU < q (perihelion) < 1.3 AU"
        }
    },
    "is_sentry_object": false
}